[{"OBJECT_NAME":"STARLINK-6069","OBJECT_ID":"2023-078AP","EPOCH":"2026-03-09T22:42:04.054464","MEAN_MOTION":14.98327874,"ECCENTRICITY":0.00026032,"INCLINATION":70.0001,"RA_OF_ASC_NODE":323.7401,"ARG_OF_PERICENTER":261.2773,"MEAN_ANOMALY":98.8092,"EPHEMERIS_TYPE":0,"CLASSIFICATION_TYPE":"U","NORAD_CAT_ID":56804,"ELEMENT_SET_NO":999,"REV_AT_EPOCH":15388,"BSTAR":-0.00010825386,"MEAN_MOTION_DOT":-1.384e-5,"MEAN_MOTION_DDOT":0},{"OBJECT_NAME":"PSLV DEB","OBJECT_ID":"2001-049PF","EPOCH":"2026-02-25T09:35:51.227808","MEAN_MOTION":15.03011877,"ECCENTRICITY":0.00263657,"INCLINATION":98.0083,"RA_OF_ASC_NODE":118.9106,"ARG_OF_PERICENTER":265.6966,"MEAN_ANOMALY":94.1245,"EPHEMERIS_TYPE":0,"CLASSIFICATION_TYPE":"U","NORAD_CAT_ID":28853,"ELEMENT_SET_NO":999,"REV_AT_EPOCH":68879,"BSTAR":0.00037786861,"MEAN_MOTION_DOT":5.057e-5,"MEAN_MOTION_DDOT":0}]
